NORAD_CAT_ID,OBJECT_NAME,OBJECT_TYPE,EPOCH,MEAN_MOTION,ECCENTRICITY,INCLINATION,RA_OF_ASC_NODE,ARG_OF_PERICENTER,MEAN_ANOMALY,BSTAR,MEAN_MOTION_DOT,MEAN_MOTION_DDOT,TLE_LINE0,TLE_LINE1,TLE_LINE2,SEMIMAJOR_AXIS,PERIOD,APOGEE,PERIGEE,DECAYED
52631.0,STARLINK-3794,PAYLOAD,2024-05-21 01:51:59,15.08848001,0.0001242,53.2169,341.2671,97.2592,262.8542,0.00017378,2.479e-05,0.0,0 STARLINK-3794,1 52631U 22052AK  24142.07777653  .00002479  00000-0  17378-3 0  9994,2 52631  53.2169 341.2671 0001242  97.2592 262.8542 15.08848001111728,6917.856,95.437,540.58,538.862,0.0
52631.0,STARLINK-3794,PAYLOAD,2024-05-21 22:32:00,15.08844905,0.0001424,53.2177,337.3983,103.6673,256.4478,0.00011689,1.573e-05,0.0,0 STARLINK-3794,1 52631U 22052AK  24142.93889675  .00001573  00000-0  11689-3 0  9990,2 52631  53.2177 337.3983 0001424 103.6673 256.4478 15.08844905111853,6917.865,95.437,540.716,538.745,0.0
52631.0,STARLINK-3794,PAYLOAD,2024-05-22 19:12:01,15.08843046,0.0001547,53.2169,333.5325,125.8108,234.3028,9.3787e-05,1.205e-05,0.0,0 STARLINK-3794,1 52631U 22052AK  24143.80001673  .00001205  00000-0  93787-4 0  9993,2 52631  53.2169 333.5325 0001547 125.8108 234.3028 15.08843046111982,6917.871,95.437,540.806,538.666,0.0
52631.0,STARLINK-3794,PAYLOAD,2024-05-22 22:22:47,15.08843404,0.0001526,53.2169,332.9377,124.5366,235.5771,9.4198e-05,1.212e-05,0.0,0 STARLINK-3794,1 52631U 22052AK  24143.93249647  .00001212  00000-0  94198-4 0  9997,2 52631  53.2169 332.9377 0001526 124.5366 235.5771 15.08843404112371,6917.87,95.437,540.791,538.679,0.0
52631.0,STARLINK-3794,PAYLOAD,2024-05-23 15:52:02,15.08838199,0.000145,53.218,329.6646,106.3931,253.7221,2.3788e-05,9.1e-07,0.0,0 STARLINK-3794,1 52631U 22052AK  24144.66114076  .00000091  00000-0  23788-4 0  9996,2 52631  53.2180 329.6646 0001450 106.3931 253.7221 15.08838199112487,6917.886,95.438,540.754,538.748,0.0
52631.0,STARLINK-3794,PAYLOAD,2024-05-24 12:32:03,15.08834193,0.0001411,53.2194,325.7987,116.5325,243.5812,7.5209e-05,9.09e-06,0.0,0 STARLINK-3794,1 52631U 22052AK  24145.52226303  .00000909  00000-0  75209-4 0  9992,2 52631  53.2194 325.7987 0001411 116.5325 243.5812 15.08834193112241,6917.898,95.438,540.739,538.787,0.0
52631.0,STARLINK-3794,PAYLOAD,2024-05-24 18:53:36,15.0884097,0.0001167,53.217,324.6161,110.5573,249.5545,-3.521e-05,-8.48e-06,0.0,0 STARLINK-3794,1 52631U 22052AK  24145.78722435 -.00000848  00000-0 -35210-4 0  9999,2 52631  53.2170 324.6161 0001167 110.5573 249.5545 15.08840970112658,6917.877,95.437,540.55,538.935,0.0
52631.0,STARLINK-3794,PAYLOAD,2024-05-24 22:04:21,15.08844851,0.0001191,53.2169,324.0197,102.1399,257.9726,5.7963e-05,6.35e-06,0.0,0 STARLINK-3794,1 52631U 22052AK  24145.91969806  .00000635  00000-0  57963-4 0  9990,2 52631  53.2169 324.0197 0001191 102.1399 257.9726 15.08844851112307,6917.866,95.437,540.554,538.907,0.0
52631.0,STARLINK-3794,PAYLOAD,2024-05-25 12:22:51,15.08833998,0.000131,53.2161,321.3436,98.2597,261.8543,2.248e-05,7e-07,0.0,0 STARLINK-3794,1 52631U 22052AK  24146.51586917  .00000070  00000-0  22480-4 0  9994,2 52631  53.2161 321.3436 0001310  98.2597 261.8543 15.08833998112764,6917.899,95.438,540.67,538.857,0.0
52631.0,STARLINK-3794,PAYLOAD,2024-05-25 18:44:26,15.08804595,0.0001518,53.217,320.1541,82.3291,277.7873,-0.00025802,-4.388e-05,0.0,0 STARLINK-3794,1 52631U 22052AK  24146.78085688 -.00004388  00000-0 -25802-3 0  9990,2 52631  53.2170 320.1541 0001518  82.3291 277.7873 15.08804595112801,6917.989,95.44,540.904,538.803,0.0
52631.0,STARLINK-3794,PAYLOAD,2024-05-26 04:16:41,15.0885316,0.0001714,53.218,318.3786,85.6959,274.4229,0.0002934,4.386e-05,0.0,0 STARLINK-3794,1 52631U 22052AK  24147.17825575  .00004386  00000-0  29340-3 0  9998,2 52631  53.2180 318.3786 0001714  85.6959 274.4229 15.08853160112864,6917.84,95.437,540.891,538.519,0.0
52631.0,STARLINK-3794,PAYLOAD,2024-05-26 12:13:40,15.087982,0.0001176,53.2183,316.8925,80.2094,279.9031,-0.0001654,-2.916e-05,0.0,0 STARLINK-3794,1 52631U 22052AK  24147.50950090 -.00002916  00000-0 -16540-3 0  9993,2 52631  53.2183 316.8925 0001176  80.2094 279.9031 15.08798200112918,6918.008,95.44,540.687,539.06,0.0
52631.0,STARLINK-3794,PAYLOAD,2024-05-26 20:10:33,15.08842992,0.0001352,53.218,315.4028,96.3656,263.749,0.00018695,2.689e-05,0.0,0 STARLINK-3794,1 52631U 22052AK  24147.84066381  .00002689  00000-0  18695-3 0  9999,2 52631  53.2180 315.4028 0001352  96.3656 263.7490 15.08842992112965,6917.871,95.437,540.672,538.801,0.0
52631.0,STARLINK-3794,PAYLOAD,2024-05-26 21:45:55,15.08850215,0.0001296,53.2171,315.0993,84.7648,275.3492,0.00020265,2.94e-05,0.0,0 STARLINK-3794,1 52631U 22052AK  24147.90689753  .00002940  00000-0  20265-3 0  9996,2 52631  53.2171 315.0993 0001296  84.7648 275.3492 15.08850215112600,6917.849,95.437,540.611,538.818,0.0
52631.0,STARLINK-3794,PAYLOAD,2024-05-27 10:29:01,15.08841499,0.0001775,53.2173,312.7175,98.171,261.9483,0.00010049,1.312e-05,0.0,0 STARLINK-3794,1 52631U 22052AK  24148.43682616  .00001312  00000-0  10049-3 0  9997,2 52631  53.2173 312.7175 0001775  98.1710 261.9483 15.08841499113054,6917.876,95.437,540.969,538.513,0.0
52631.0,STARLINK-3794,PAYLOAD,2024-05-27 18:25:57,15.08835834,0.0001308,53.218,311.231,97.3341,262.78,0.00010133,1.325e-05,0.0,0 STARLINK-3794,1 52631U 22052AK  24148.76802941  .00001325  00000-0  10133-3 0  9996,2 52631  53.2180 311.2310 0001308  97.3341 262.7800 15.08835834113104,6917.893,95.438,540.663,538.853,0.0
52631.0,STARLINK-3794,PAYLOAD,2024-05-28 10:19:48,15.08855788,0.0001289,53.2177,308.2576,103.0525,257.0611,-0.0001213,-2.219e-05,0.0,0 STARLINK-3794,1 52631U 22052AK  24149.43042436 -.00002219  00000-0 -12130-3 0  9990,2 52631  53.2177 308.2576 0001289 103.0525 257.0611 15.08855788113205,6917.832,95.437,540.589,538.805,0.0
52631.0,STARLINK-3794,PAYLOAD,2024-05-28 18:16:43,15.08866242,0.0001143,53.2175,306.7707,100.3908,259.7213,-0.00025925,-4.414e-05,0.0,0 STARLINK-3794,1 52631U 22052AK  24149.76161844 -.00004414  00000-0 -25925-3 0  9996,2 52631  53.2175 306.7707 0001143 100.3908 259.7213 15.08866242112883,6917.8,95.436,540.456,538.874,0.0
52631.0,STARLINK-3794,PAYLOAD,2024-05-29 10:10:36,15.08836625,0.0001187,53.2178,303.7987,89.2678,270.845,2.4712e-05,1.05e-06,0.0,0 STARLINK-3794,1 52631U 22052AK  24150.42402852  .00000105  00000-0  24712-4 0  9993,2 52631  53.2178 303.7987 0001187  89.2678 270.8450 15.08836625113352,6917.891,95.438,540.577,538.935,0.0
52631.0,STARLINK-3794,PAYLOAD,2024-05-29 16:32:08,15.08836787,0.000119,53.2178,302.6089,88.6993,271.4135,1.4818e-05,-5.2e-07,0.0,0 STARLINK-3794,1 52631U 22052AK  24150.68898957 -.00000052  00000-0  14818-4 0  9994,2 52631  53.2178 302.6089 0001190  88.6993 271.4135 15.08836787113020,6917.89,95.438,540.578,538.932,0.0
52631.0,STARLINK-3794,PAYLOAD,2024-05-30 13:12:09,15.08842727,0.0001228,53.2176,298.7438,84.5271,275.5861,6.5793e-05,7.59e-06,0.0,0 STARLINK-3794,1 52631U 22052AK  24151.55010504  .00000759  00000-0  65793-4 0  9996,2 52631  53.2176 298.7438 0001228  84.5271 275.5861 15.08842727113524,6917.872,95.437,540.587,538.888,0.0
52631.0,STARLINK-3794,PAYLOAD,2024-05-30 14:47:32,15.08843417,0.0001265,53.2177,298.4466,81.6107,278.5029,7.1994e-05,8.58e-06,0.0,0 STARLINK-3794,1 52631U 22052AK  24151.61634456  .00000858  00000-0  71994-4 0  9991,2 52631  53.2177 298.4466 0001265  81.6107 278.5029 15.08843417113166,6917.87,95.437,540.61,538.86,0.0
52631.0,STARLINK-3794,PAYLOAD,2024-05-30 16:22:55,15.08844504,0.0001283,53.2174,298.1489,81.7668,278.3469,8.339e-05,1.04e-05,0.0,0 STARLINK-3794,1 52631U 22052AK  24151.68258342  .00001040  00000-0  83390-4 0  9991,2 52631  53.2174 298.1489 0001283  81.7668 278.3469 15.08844504113173,6917.867,95.437,540.619,538.844,0.0
52631.0,STARLINK-3794,PAYLOAD,2024-05-31 14:38:19,15.08840332,0.0001334,53.2178,293.9842,103.1241,256.99,6.7173e-05,7.81e-06,0.0,0 STARLINK-3794,1 52631U 22052AK  24152.60994424  .00000781  00000-0  67173-4 0  9994,2 52631  53.2178 293.9842 0001334 103.1241 256.9900 15.08840332113319,6917.879,95.438,540.667,538.822,0.0
52631.0,STARLINK-3794,PAYLOAD,2024-05-31 16:13:42,15.08840005,0.0001303,53.2178,293.687,101.0892,259.0246,6.366e-05,7.25e-06,0.0,0 STARLINK-3794,1 52631U 22052AK  24152.67618462  .00000725  00000-0  63660-4 0  9991,2 52631  53.2178 293.6870 0001303 101.0892 259.0246 15.08840005113697,6917.88,95.438,540.647,538.844,0.0
52631.0,STARLINK-3794,PAYLOAD,2024-06-01 12:53:41,15.08926529,0.0001697,53.2178,289.8212,81.9675,278.151,-0.0013033,-0.00021019,0.0,0 STARLINK-3794,1 52631U 22052AK  24153.53728791 -.00021019  00000-0 -13033-2 0  9992,2 52631  53.2178 289.8212 0001697  81.9675 278.1510 15.08926529113822,6917.616,95.432,540.655,538.307,0.0
52631.0,STARLINK-3794,PAYLOAD,2024-06-01 14:29:07,15.08832373,0.000138,53.2182,289.5249,100.3189,259.7959,-2.3399e-05,-6.6e-06,0.0,0 STARLINK-3794,1 52631U 22052AK  24153.60355344 -.00000660  00000-0 -23399-4 0  9997,2 52631  53.2182 289.5249 0001380 100.3189 259.7959 15.08832373113464,6917.904,95.438,540.723,538.814,0.0
52631.0,STARLINK-3794,PAYLOAD,2024-06-01 16:04:30,15.08833552,0.0001403,53.218,289.2291,97.3379,262.7772,-2.7067e-05,-7.19e-06,0.0,0 STARLINK-3794,1 52631U 22052AK  24153.66979314 -.00000719  00000-0 -27067-4 0  9993,2 52631  53.2180 289.2291 0001403  97.3379 262.7772 15.08833552113847,6917.9,95.438,540.736,538.795,0.0
52631.0,STARLINK-3794,PAYLOAD,2024-06-02 01:36:48,15.08842219,0.000125,53.2179,287.4452,96.1037,264.0097,-3.0177e-05,-7.68e-06,0.0,0 STARLINK-3794,1 52631U 22052AK  24154.06722801 -.00000768  00000-0 -30177-4 0  9995,2 52631  53.2179 287.4452 0001250  96.1037 264.0097 15.08842219113904,6917.874,95.437,540.603,538.874,0.0
52631.0,STARLINK-3794,PAYLOAD,2024-06-02 17:30:40,15.08831834,0.0001255,53.219,284.4705,88.9447,271.1689,9.1372e-06,-1.42e-06,0.0,0 STARLINK-3794,1 52631U 22052AK  24154.72963577 -.00000142  00000-0  91372-5 0  9995,2 52631  53.2190 284.4705 0001255  88.9447 271.1689 15.08831834114003,6917.905,95.438,540.639,538.902,0.0
